NORAD_CAT_ID,OBJECT_NAME,OBJECT_TYPE,EPOCH,MEAN_MOTION,ECCENTRICITY,INCLINATION,RA_OF_ASC_NODE,ARG_OF_PERICENTER,MEAN_ANOMALY,BSTAR,MEAN_MOTION_DOT,MEAN_MOTION_DDOT,TLE_LINE0,TLE_LINE1,TLE_LINE2,SEMIMAJOR_AXIS,PERIOD,APOGEE,PERIGEE,DECAYED
53264.0,STARLINK-3950,PAYLOAD,2023-02-02 22:54:56,15.08840726,0.0001557,53.2148,230.1845,96.3718,263.7452,0.0001868,2.686e-05,0.0,0 STARLINK-3950,1 53264U 22086Y   23033.95482091  .00002686  00000-0  18680-3 0  9995,2 53264  53.2148 230.1845 0001557  96.3718 263.7452 15.08840726 30182,6917.878,95.438,540.82,538.666,0.0
53264.0,STARLINK-3950,PAYLOAD,2023-02-04 05:07:14,15.08852866,0.00011,53.2153,224.5357,92.1047,268.0071,0.00017129,2.44e-05,0.0,0 STARLINK-3950,1 53264U 22086Y   23035.21336803  .00002440  00000-0  17129-3 0  9990,2 53264  53.2153 224.5357 0001100  92.1047 268.0071 15.08852866 30370,6917.841,95.437,540.467,538.945,0.0
53264.0,STARLINK-3950,PAYLOAD,2023-02-04 13:04:10,15.08847961,0.000109,53.2164,223.0488,89.9785,270.1332,-2.8171e-05,-7.36e-06,0.0,0 STARLINK-3950,1 53264U 22086Y   23035.54456862 -.00000736  00000-0 -28171-4 0  9992,2 53264  53.2164 223.0488 0001090  89.9785 270.1332 15.08847961 30602,6917.856,95.437,540.475,538.967,0.0
53264.0,STARLINK-3950,PAYLOAD,2023-02-04 21:01:06,15.08849054,0.0001126,53.2162,221.5615,92.0822,268.0299,-1.9391e-05,-5.97e-06,0.0,0 STARLINK-3950,1 53264U 22086Y   23035.87576534 -.00000597  00000-0 -19391-4 0  9996,2 53264  53.2162 221.5615 0001126  92.0822 268.0299 15.08849054 30650,6917.853,95.437,540.497,538.939,0.0
53264.0,STARLINK-3950,PAYLOAD,2023-02-05 04:58:01,15.08842208,0.0001069,53.2161,220.0746,95.5631,264.5483,-0.00010569,-1.97e-05,0.0,0 STARLINK-3950,1 53264U 22086Y   23036.20696721 -.00001970  00000-0 -10569-3 0  9998,2 53264  53.2161 220.0746 0001069  95.5631 264.5483 15.08842208 30526,6917.874,95.437,540.478,538.999,0.0
53264.0,STARLINK-3950,PAYLOAD,2023-02-05 12:54:57,15.08829042,0.0001101,53.216,218.5877,97.2162,262.8955,0.00018229,2.614e-05,0.0,0 STARLINK-3950,1 53264U 22086Y   23036.53817071  .00002614  00000-0  18229-3 0  9992,2 53264  53.2160 218.5877 0001101  97.2162 262.8955 15.08829042 30758,6917.914,95.438,540.541,539.017,0.0
53264.0,STARLINK-3950,PAYLOAD,2023-02-05 20:51:53,15.08842851,0.00013,53.2171,217.1008,82.7035,277.4105,1.3659e-05,-7e-07,0.0,0 STARLINK-3950,1 53264U 22086Y   23036.86937045 -.00000070  00000-0  13659-4 0  9990,2 53264  53.2171 217.1008 0001300  82.7035 277.4105 15.08842851 30808,6917.872,95.437,540.636,538.837,0.0
53264.0,STARLINK-3950,PAYLOAD,2023-02-06 11:10:21,15.08840638,0.0001204,53.2171,214.4245,85.4716,274.6414,0.00011214,1.497e-05,0.0,0 STARLINK-3950,1 53264U 22086Y   23037.46552898  .00001497  00000-0  11214-3 0  9993,2 53264  53.2171 214.4245 0001204  85.4716 274.6414 15.08840638 30713,6917.878,95.438,540.576,538.911,0.0
53264.0,STARLINK-3950,PAYLOAD,2023-02-06 12:45:44,15.08841755,0.0001204,53.2171,214.1272,85.7377,274.3752,0.00012136,1.644e-05,0.0,0 STARLINK-3950,1 53264U 22086Y   23037.53176840  .00001644  00000-0  12136-3 0  9998,2 53264  53.2171 214.1272 0001204  85.7377 274.3752 15.08841755 30900,6917.875,95.437,540.573,538.907,0.0
53264.0,STARLINK-3950,PAYLOAD,2023-02-06 20:42:39,15.08849868,0.0001197,53.2172,212.6403,85.6449,274.468,0.00014839,2.075e-05,0.0,0 STARLINK-3950,1 53264U 22086Y   23037.86296264  .00002075  00000-0  14839-3 0  9998,2 53264  53.2172 212.6403 0001197  85.6449 274.4680 15.08849868 30779,6917.85,95.437,540.543,538.887,0.0
53264.0,STARLINK-3950,PAYLOAD,2023-02-07 04:39:35,15.08844361,0.0001204,53.2164,211.1535,83.8812,276.2317,8.4251e-05,1.053e-05,0.0,0 STARLINK-3950,1 53264U 22086Y   23038.19416567  .00001053  00000-0  84251-4 0  9996,2 53264  53.2164 211.1535 0001204  83.8812 276.2317 15.08844361 30829,6917.867,95.437,540.565,538.899,0.0
53264.0,STARLINK-3950,PAYLOAD,2023-02-07 12:36:31,15.08838428,0.0001181,53.2162,209.6664,81.3476,278.765,9.3814e-05,1.205e-05,0.0,0 STARLINK-3950,1 53264U 22086Y   23038.52536931  .00001205  00000-0  93814-4 0  9995,2 53264  53.2162 209.6664 0001181  81.3476 278.7650 15.08838428 31055,6917.885,95.438,540.567,538.933,0.0
53264.0,STARLINK-3950,PAYLOAD,2023-02-07 18:58:04,15.08845434,0.0001205,53.2164,208.477,79.8237,280.2891,0.00015588,2.194e-05,0.0,0 STARLINK-3950,1 53264U 22086Y   23038.79032587  .00002194  00000-0  15588-3 0  9991,2 53264  53.2164 208.4770 0001205  79.8237 280.2891 15.08845434 31090,6917.864,95.437,540.562,538.895,0.0
53264.0,STARLINK-3950,PAYLOAD,2023-02-08 04:30:24,15.08811965,0.0001311,53.2165,206.693,77.1111,283.0028,-0.00030423,-5.123e-05,0.0,0 STARLINK-3950,1 53264U 22086Y   23039.18778794 -.00005123  00000-0 -30423-3 0  9994,2 53264  53.2165 206.6930 0001311  77.1111 283.0028 15.08811965 30970,6917.966,95.439,540.738,538.924,0.0
53264.0,STARLINK-3950,PAYLOAD,2023-02-08 17:13:28,15.08860046,0.0001247,53.2176,204.3147,82.7729,277.3404,0.00039281,5.973e-05,0.0,0 STARLINK-3950,1 53264U 22086Y   23039.71768885  .00005973  00000-0  39281-3 0  9995,2 53264  53.2176 204.3147 0001247  82.7729 277.3404 15.08860046 31050,6917.819,95.436,540.547,538.821,0.0
53264.0,STARLINK-3950,PAYLOAD,2023-02-09 05:56:33,15.08848567,0.0001296,53.2168,201.936,74.7599,285.3537,0.00028734,4.289e-05,0.0,0 STARLINK-3950,1 53264U 22086Y   23040.24761480  .00004289  00000-0  28734-3 0  9999,2 53264  53.2168 201.9360 0001296  74.7599 285.3537 15.08848567 31130,6917.854,95.437,540.616,538.823,0.0
53264.0,STARLINK-3950,PAYLOAD,2023-02-09 10:42:43,15.08841117,0.0001249,53.2168,201.0434,80.1461,279.9672,0.00018478,2.654e-05,0.0,0 STARLINK-3950,1 53264U 22086Y   23040.44633858  .00002654  00000-0  18478-3 0  9996,2 53264  53.2168 201.0434 0001249  80.1461 279.9672 15.08841117 31346,6917.877,95.437,540.606,538.878,0.0
53264.0,STARLINK-3950,PAYLOAD,2023-02-09 17:04:15,15.08846201,0.000124,53.2171,199.8537,77.7246,282.3885,0.00014372,2.001e-05,0.0,0 STARLINK-3950,1 53264U 22086Y   23040.71129206  .00002001  00000-0  14372-3 0  9998,2 53264  53.2171 199.8537 0001240  77.7246 282.3885 15.08846201 31389,6917.861,95.437,540.584,538.869,0.0
53264.0,STARLINK-3950,PAYLOAD,2023-02-10 13:44:16,15.08847884,0.0001339,53.2164,195.9883,70.5896,289.5241,0.00024056,3.543e-05,0.0,0 STARLINK-3950,1 53264U 22086Y   23041.57241534  .00003543  00000-0  24056-3 0  9994,2 53264  53.2164 195.9883 0001339  70.5896 289.5241 15.08847884 31331,6917.856,95.437,540.648,538.795,0.0
53264.0,STARLINK-3950,PAYLOAD,2023-02-10 16:55:02,15.08861709,0.0001354,53.2165,195.3937,62.9234,297.1896,4.0647e-05,3.59e-06,0.0,0 STARLINK-3950,1 53264U 22086Y   23041.70488789  .00000359  00000-0  40647-4 0  9991,2 53264  53.2165 195.3937 0001354  62.9234 297.1896 15.08861709 31539,6917.814,95.436,540.616,538.742,0.0
53264.0,STARLINK-3950,PAYLOAD,2023-02-11 10:24:17,15.08837157,0.0001188,53.2164,192.1225,85.8697,274.2431,-1.9894e-05,-6.04e-06,0.0,0 STARLINK-3950,1 53264U 22086Y   23042.43353727 -.00000604  00000-0 -19894-4 0  9990,2 53264  53.2164 192.1225 0001188  85.8697 274.2431 15.08837157 31468,6917.889,95.438,540.576,538.932,0.0
53264.0,STARLINK-3950,PAYLOAD,2023-02-11 11:59:40,15.08839001,0.0001197,53.2165,191.8247,92.4881,267.6248,7.3674e-06,-1.71e-06,0.0,0 STARLINK-3950,1 53264U 22086Y   23042.49977591 -.00000171  00000-0  73674-5 0  9992,2 53264  53.2165 191.8247 0001197  92.4881 267.6248 15.08839001 31651,6917.883,95.438,540.577,538.92,0.0
53264.0,STARLINK-3950,PAYLOAD,2023-02-11 13:35:03,15.08840192,0.0001205,53.2166,191.5267,99.403,260.7099,1.1824e-05,-1e-06,0.0,0 STARLINK-3950,1 53264U 22086Y   23042.56601508 -.00000100  00000-0  11824-4 0  9992,2 53264  53.2166 191.5267 0001205  99.4030 260.7099 15.08840192 31666,6917.88,95.438,540.578,538.911,0.0
53264.0,STARLINK-3950,PAYLOAD,2023-02-12 10:15:04,15.08837241,0.0001205,53.2168,187.6631,94.6377,265.4753,-1.1978e-05,-4.78e-06,0.0,0 STARLINK-3950,1 53264U 22086Y   23043.42713653 -.00000478  00000-0 -11978-4 0  9992,2 53264  53.2168 187.6631 0001205  94.6377 265.4753 15.08837241 31794,6917.889,95.438,540.587,538.92,0.0
53264.0,STARLINK-3950,PAYLOAD,2023-02-12 18:11:59,15.0885255,0.000119,53.2167,186.1754,83.4736,276.6392,0.00021474,3.133e-05,0.0,0 STARLINK-3950,1 53264U 22086Y   23043.75832832  .00003133  00000-0  21474-3 0  9999,2 53264  53.2167 186.1754 0001190  83.4736 276.6392 15.08852550 31660,6917.842,95.437,540.53,538.884,0.0
53264.0,STARLINK-3950,PAYLOAD,2023-02-13 05:19:42,15.08836503,0.000143,53.2143,184.0938,91.003,269.1126,6.3798e-05,7.27e-06,0.0,0 STARLINK-3950,1 53264U 22086Y   23044.22201607  .00000727  00000-0  63798-4 0  9994,2 53264  53.2143 184.0938 0001430  91.0030 269.1126 15.08836503 31734,6917.891,95.438,540.745,538.767,0.0
53264.0,STARLINK-3950,PAYLOAD,2023-02-13 11:41:14,15.0884014,0.0001241,53.2163,182.9051,110.8002,249.3123,0.00011187,1.493e-05,0.0,0 STARLINK-3950,1 53264U 22086Y   23044.48697471  .00001493  00000-0  11187-3 0  9995,2 53264  53.2163 182.9051 0001241 110.8002 249.3123 15.08840140 31951,6917.88,95.438,540.603,538.886,0.0
53264.0,STARLINK-3950,PAYLOAD,2023-02-14 11:32:01,15.08838646,0.0001278,53.2161,178.4454,94.8204,265.2934,8.902e-05,1.129e-05,0.0,0 STARLINK-3950,1 53264U 22086Y   23045.48057681  .00001129  00000-0  89020-4 0  9997,2 53264  53.2161 178.4454 0001278  94.8204 265.2934 15.08838646 31923,6917.885,95.438,540.634,538.865,0.0
53264.0,STARLINK-3950,PAYLOAD,2023-02-14 17:53:34,15.08841918,0.0001253,53.216,177.2555,95.4072,264.7063,0.00013551,1.87e-05,0.0,0 STARLINK-3950,1 53264U 22086Y   23045.74553590  .00001870  00000-0  13551-3 0  9994,2 53264  53.2160 177.2555 0001253  95.4072 264.7063 15.08841918 32142,6917.875,95.437,540.606,538.873,0.0
53264.0,STARLINK-3950,PAYLOAD,2023-02-15 03:25:52,15.08849315,0.0001374,53.2152,175.4709,99.2407,260.8741,0.00033659,5.074e-05,0.0,0 STARLINK-3950,1 53264U 22086Y   23046.14297379  .00005074  00000-0  33659-3 0  9990,2 53264  53.2152 175.4709 0001374  99.2407 260.8741 15.08849315 32028,6917.852,95.437,540.667,538.766,0.0
